CALSPHERE 1             
1 00900U 64063C   23241.84106049  .00000699  00000+0  72784-3 0  9996
2 00900  90.1892  49.3088 0027862 139.3588 331.6873 13.74447211930865
CALSPHERE 2             
1 00902U 64063E   23241.49374528  .00000057  00000+0  72479-4 0  9998
2 00902  90.2026  52.6982 0017112 321.2776  97.8004 13.52760010717990
LCS 1                   
1 01361U 65034C   23241.36455366  .00000011  00000+0  36877-3 0  9994
2 01361  32.1418  85.5457 0006435   3.0428 357.0107  9.89303552108591
TEMPSAT 1               
1 01512U 65065E   23241.46337203  .00000036  00000+0  54879-4 0  9996
2 01512  89.9360 215.5344 0068083 239.7975 241.3246 13.33484671823743
CALSPHERE 4A            
1 01520U 65065H   23241.72811803  .00000125  00000+0  22294-3 0  9991
2 01520  89.9669 129.3209 0070709 106.9895 314.2441 13.35984773826177
OPS 5712 (P/L 160)      
1 02826U 67053A   23241.79030090  .00004297  00000+0  10193-2 0  9996
2 02826  69.9292 337.9314 0002931  76.5786 283.5676 14.54609120916376
OPS 5712 (P/L 153)      
1 02874U 67053H   23242.15171460  .00000053  00000+0  76961-4 0  9990
2 02874  69.9742 145.4191 0004761  77.5701 282.5937 13.96499307864555
SURCAL 150B             
1 02909U 67053J   23241.83463756  .00006887  00000+0  11284-2 0  9991
2 02909  69.9453 303.7185 0000477 167.5250 192.5907 14.71128973927902
RIGIDSPHERE 2 (LCS 4)   
1 05398U 71067E   23242.08399507  .00000824  00000+0  27705-3 0  9997
2 05398  87.6155 261.8204 0063063  19.8191 340.5436 14.34983417727374
COSMOS 2493 (SKRL-756 1)
1 39490U 13078A   23242.39605108  .00002755  00000+0  27044-3 0  9997
2 39490  82.4200 172.8520 0018138  78.8357 281.4900 14.91737165525401
COSMOS 2494 (SKRL-756 2)
1 39491U 13078B   23242.39185665  .00003338  00000+0  31438-3 0  9999
2 39491  82.4200 165.6281 0022066  53.2208 307.1033 14.93374227525785
